{
  "type": "FeatureCollection",
  "features": [
    {
      "type": "Feature",
      "properties": {
        "norad_id": 67222,
        "name": "DISKSAT D",
        "group": "last-30-days",
        "lat": 27.68442266015566,
        "lon": -15.467820401812661,
        "alt_km": 548.4872906095761,
        "timestamp": "2025-12-19T18:58:40.331321+00:00",
        "meta_object_name": "DISKSAT D",
        "meta_object_id": "2025-305D",
        "meta_epoch": "2025-12-18T07:46:51.908160",
        "meta_mean_motion": 15.06357331,
        "meta_eccentricity": 0.00088258,
        "meta_inclination": 45.0527,
        "meta_ra_of_asc_node": 320.6724,
        "meta_arg_of_pericenter": 241.9782,
        "meta_mean_anomaly": 118.0201,
        "meta_ephemeris_type": 0,
        "meta_classification_type": "U",
        "meta_norad_cat_id": 67222,
        "meta_element_set_no": 999,
        "meta_rev_at_epoch": 1,
        "meta_bstar": 0.00029211464,
        "meta_mean_motion_dot": 4.13e-05,
        "meta_mean_motion_ddot": 0,
        "tle_line1": "1 67222U 25305D   25352.32421190  .00004130  00000+0  29211-3 0  9998",
        "tle_line2": "2 67222  45.0527 320.6724 0008825 241.9782 118.0201 15.06357331    12"
      },
      "geometry": {
        "type": "Point",
        "coordinates": [
          -15.467820401812661,
          27.68442266015566
        ]
      }
    },
    {
      "type": "Feature",
      "properties": {
        "norad_id": 67223,
        "name": "ELECTRON KICK STAGE R/B",
        "group": "last-30-days",
        "lat": -44.76939568682287,
        "lon": -130.5185868911322,
        "alt_km": 502.03205707940833,
        "timestamp": "2025-12-19T18:58:40.331331+00:00",
        "meta_object_name": "ELECTRON KICK STAGE R/B",
        "meta_object_id": "2025-305E",
        "meta_epoch": "2025-12-18T06:11:27.945312",
        "meta_mean_motion": 15.48092024,
        "meta_eccentricity": 0.01803623,
        "meta_inclination": 44.9944,
        "meta_ra_of_asc_node": 321.2861,
        "meta_arg_of_pericenter": 136.421,
        "meta_mean_anomaly": 225.1089,
        "meta_ephemeris_type": 0,
        "meta_classification_type": "U",
        "meta_norad_cat_id": 67223,
        "meta_element_set_no": 999,
        "meta_rev_at_epoch": 1,
        "meta_bstar": 0.00018043632,
        "meta_mean_motion_dot": 0.00018378,
        "meta_mean_motion_ddot": 0,
        "tle_line1": "1 67223U 25305E   25352.25796233  .00018378  00000+0  18044-3 0  9995",
        "tle_line2": "2 67223  44.9944 321.2861 0180362 136.4210 225.1089 15.48092024    19"
      },
      "geometry": {
        "type": "Point",
        "coordinates": [
          -130.5185868911322,
          -44.76939568682287
        ]
      }
    },
    {
      "type": "Feature",
      "properties": {
        "norad_id": 67224,
        "name": "ELECTRON R/B",
        "group": "last-30-days",
        "lat": 1.8978386204385824,
        "lon": -45.70911643554397,
        "alt_km": 327.05453232610216,
        "timestamp": "2025-12-19T18:58:40.331344+00:00",
        "meta_object_name": "ELECTRON R/B",
        "meta_object_id": "2025-305F",
        "meta_epoch": "2025-12-18T18:27:13.126752",
        "meta_mean_motion": 15.64663678,
        "meta_eccentricity": 0.0262888,
        "meta_inclination": 45.0188,
        "meta_ra_of_asc_node": 318.3021,
        "meta_arg_of_pericenter": 280.1207,
        "meta_mean_anomaly": 77.0133,
        "meta_ephemeris_type": 0,
        "meta_classification_type": "U",
        "meta_norad_cat_id": 67224,
        "meta_element_set_no": 999,
        "meta_rev_at_epoch": 9,
        "meta_bstar": 0.00022935,
        "meta_mean_motion_dot": 0.00172783,
        "meta_mean_motion_ddot": 8.6369e-06,
        "tle_line1": "1 67224U 25305F   25352.76890193  .00172783  86369-5  22935-3 0  9995",
        "tle_line2": "2 67224  45.0188 318.3021 0262888 280.1207  77.0133 15.64663678    93"
      },
      "geometry": {
        "type": "Point",
        "coordinates": [
          -45.70911643554397,
          1.8978386204385824
        ]
      }
    }
  ]
}